{"fetched_at":"2026-07-18T17:29:29.751Z","source":"https://celestrak.org/NORAD/elements/gp.php?GROUP=kuiper&FORMAT=JSON","constellation":"kuiper","records":[{"OBJECT_NAME":"KUIPER-00629","OBJECT_ID":"2026-151W","EPOCH":"2026-07-18T06:00:02.000160","CLASSIFICATION_TYPE":"U","MEAN_MOTION":15.31265908,"ECCENTRICITY":0.0006539,"INCLINATION":51.8779,"RA_OF_ASC_NODE":165.7573,"ARG_OF_PERICENTER":166.5712,"MEAN_ANOMALY":182.0707,"EPHEMERIS_TYPE":0,"NORAD_CAT_ID":69783,"ELEMENT_SET_NO":999,"REV_AT_EPOCH":281,"BSTAR":-0.038685078,"MEAN_MOTION_DOT":-0.01087108,"MEAN_MOTION_DDOT":0},{"OBJECT_NAME":"KUIPER-00631","OBJECT_ID":"2026-151X","EPOCH":"2026-07-18T06:00:02.000160","CLASSIFICATION_TYPE":"U","MEAN_MOTION":15.32639109,"ECCENTRICITY":0.00082708,"INCLINATION":51.8738,"RA_OF_ASC_NODE":165.7493,"ARG_OF_PERICENTER":166.3755,"MEAN_ANOMALY":179.3973,"EPHEMERIS_TYPE":0,"NORAD_CAT_ID":69784,"ELEMENT_SET_NO":999,"REV_AT_EPOCH":130,"BSTAR":-0.061011812,"MEAN_MOTION_DOT":-0.0176422,"MEAN_MOTION_DDOT":0},{"OBJECT_NAME":"KUIPER-00634","OBJECT_ID":"2026-151Y","EPOCH":"2026-07-18T05:42:31.404672","CLASSIFICATION_TYPE":"U","MEAN_MOTION":15.3778467,"ECCENTRICITY":0.00035921,"INCLINATION":51.878,"RA_OF_ASC_NODE":165.6315,"ARG_OF_PERICENTER":144.8967,"MEAN_ANOMALY":215.2257,"EPHEMERIS_TYPE":0,"NORAD_CAT_ID":69785,"ELEMENT_SET_NO":999,"REV_AT_EPOCH":248,"BSTAR":0.00024383569,"MEAN_MOTION_DOT":0.00008812,"MEAN_MOTION_DDOT":0},{"OBJECT_NAME":"KUIPER-00639","OBJECT_ID":"2026-151Z","EPOCH":"2026-07-18T03:00:09.672480","CLASSIFICATION_TYPE":"U","MEAN_MOTION":15.35442523,"ECCENTRICITY":0.00097819,"INCLINATION":51.869,"RA_OF_ASC_NODE":166.3668,"ARG_OF_PERICENTER":173.3174,"MEAN_ANOMALY":186.7944,"EPHEMERIS_TYPE":0,"NORAD_CAT_ID":69786,"ELEMENT_SET_NO":999,"REV_AT_EPOCH":246,"BSTAR":-0.0016959152,"MEAN_MOTION_DOT":-0.00059319,"MEAN_MOTION_DDOT":0},{"OBJECT_NAME":"KUIPER-00641","OBJECT_ID":"2026-151AA","EPOCH":"2026-07-18T06:17:15.751104","CLASSIFICATION_TYPE":"U","MEAN_MOTION":15.34656707,"ECCENTRICITY":0.00115606,"INCLINATION":51.8676,"RA_OF_ASC_NODE":165.7808,"ARG_OF_PERICENTER":172.5486,"MEAN_ANOMALY":187.5674,"EPHEMERIS_TYPE":0,"NORAD_CAT_ID":69787,"ELEMENT_SET_NO":999,"REV_AT_EPOCH":248,"BSTAR":0.000090532464,"MEAN_MOTION_DOT":0.00002708,"MEAN_MOTION_DDOT":0},{"OBJECT_NAME":"KUIPER-00644","OBJECT_ID":"2026-151AB","EPOCH":"2026-07-18T00:00:02.000160","CLASSIFICATION_TYPE":"U","MEAN_MOTION":15.36540051,"ECCENTRICITY":0.00084264,"INCLINATION":51.8744,"RA_OF_ASC_NODE":166.9196,"ARG_OF_PERICENTER":169.0368,"MEAN_ANOMALY":245.6224,"EPHEMERIS_TYPE":0,"NORAD_CAT_ID":69788,"ELEMENT_SET_NO":999,"REV_AT_EPOCH":338,"BSTAR":-0.00027234066,"MEAN_MOTION_DOT":-0.00010254,"MEAN_MOTION_DDOT":0},{"OBJECT_NAME":"KUIPER-00646","OBJECT_ID":"2026-151AC","EPOCH":"2026-07-18T06:06:17.302752","CLASSIFICATION_TYPE":"U","MEAN_MOTION":15.35912269,"ECCENTRICITY":0.00077049,"INCLINATION":51.8701,"RA_OF_ASC_NODE":165.7336,"ARG_OF_PERICENTER":183.2916,"MEAN_ANOMALY":176.8021,"EPHEMERIS_TYPE":0,"NORAD_CAT_ID":69789,"ELEMENT_SET_NO":999,"REV_AT_EPOCH":248,"BSTAR":0.000012803858,"MEAN_MOTION_DOT":6.6e-7,"MEAN_MOTION_DDOT":0},{"OBJECT_NAME":"KUIPER-00647","OBJECT_ID":"2026-151AD","EPOCH":"2026-07-18T06:13:05.656800","CLASSIFICATION_TYPE":"U","MEAN_MOTION":15.35132819,"ECCENTRICITY":0.00106039,"INCLINATION":51.8673,"RA_OF_ASC_NODE":165.7627,"ARG_OF_PERICENTER":179.9038,"MEAN_ANOMALY":180.1952,"EPHEMERIS_TYPE":0,"NORAD_CAT_ID":69790,"ELEMENT_SET_NO":999,"REV_AT_EPOCH":248,"BSTAR":0.00025699599,"MEAN_MOTION_DOT":0.00008535,"MEAN_MOTION_DDOT":0},{"OBJECT_NAME":"KUIPER-00662","OBJECT_ID":"2026-151AE","EPOCH":"2026-07-18T04:26:48.617088","CLASSIFICATION_TYPE":"U","MEAN_MOTION":15.36538237,"ECCENTRICITY":0.00082947,"INCLINATION":51.8744,"RA_OF_ASC_NODE":166.0251,"ARG_OF_PERICENTER":169.1961,"MEAN_ANOMALY":190.9205,"EPHEMERIS_TYPE":0,"NORAD_CAT_ID":69791,"ELEMENT_SET_NO":999,"REV_AT_EPOCH":247,"BSTAR":0.000097813531,"MEAN_MOTION_DOT":0.00003156,"MEAN_MOTION_DDOT":0}]}
